ONEWEB-0560             
1 55145U 23004F   25217.50437069  .00000077  00000+0  16186-3 0  9998
2 55145  87.9120  38.1863 0001820  80.8623 279.2715 13.18685378128101
ONEWEB-0565             
1 55146U 23004G   25216.73900948  .00000069  00000+0  14119-3 0  9999
2 55146  87.9113  38.3960 0001302  81.1056 279.0223 13.18687134127993
ONEWEB-0567             
1 55147U 23004H   25216.73241380  .00000081  00000+0  17146-3 0  9995
2 55147  87.9119  38.3550 0001556  79.2141 280.9167 13.18687206127997
ONEWEB-0569             
1 55148U 23004J   25217.17581426 -.00000221  00000+0 -63890-3 0  9998
2 55148  87.8976  22.9804 0001722  59.6133 300.5166 13.13469463128691
ONEWEB-0570             
1 55149U 23004K   25216.49487597  .00000081  00000+0  17269-3 0  9998
2 55149  87.9115  38.4046 0001306 102.6690 257.4588 13.18684386127957
ONEWEB-0571             
1 55150U 23004L   25217.01941532  .00000008  00000+0 -12291-4 0  9994
2 55150  87.9109  38.3060 0001177  46.1280 313.9949 13.18686801128033
ONEWEB-0572             
1 55151U 23004M   25216.86550205  .00000052  00000+0  99857-4 0  9991
2 55151  87.9037  68.8202 0001579  84.5529 275.5782 13.17647258125822
ONEWEB-0573             
1 55152U 23004N   25216.78520136  .00000075  00000+0  15725-3 0  9999
2 55152  87.9110  38.3595 0000943  79.2791 280.8447 13.18687039127997
